NORAD_CAT_ID,OBJECT_NAME,OBJECT_TYPE,EPOCH,MEAN_MOTION,ECCENTRICITY,INCLINATION,RA_OF_ASC_NODE,ARG_OF_PERICENTER,MEAN_ANOMALY,BSTAR,MEAN_MOTION_DOT,MEAN_MOTION_DDOT,TLE_LINE0,TLE_LINE1,TLE_LINE2,SEMIMAJOR_AXIS,PERIOD,APOGEE,PERIGEE,DECAYED
51736.0,STARLINK-3447,PAYLOAD,2023-06-08 09:15:01,15.08841291,0.0001076,53.2156,152.1049,90.6738,269.4378,5.4144e-05,5.74e-06,0.0,0 STARLINK-3447,1 51736U 22016Y   23159.38543483  .00000574  00000-0  54144-4 0  9999,2 51736  53.2156 152.1049 0001076  90.6738 269.4378 15.08841291 71797,6917.876,95.437,540.486,538.997,0.0
51736.0,STARLINK-3447,PAYLOAD,2023-06-09 09:05:48,15.08840721,0.000109,53.2158,147.6438,92.4946,267.6171,3.5909e-05,2.84e-06,0.0,0 STARLINK-3447,1 51736U 22016Y   23160.37903535  .00000284  00000-0  35909-4 0  9994,2 51736  53.2158 147.6438 0001090  92.4946 267.6171 15.08840721 73078,6917.878,95.438,540.497,538.989,0.0
51736.0,STARLINK-3447,PAYLOAD,2023-06-10 08:56:36,15.08836267,0.0001056,53.2154,143.1835,89.6897,270.4216,4.7584e-07,-2.8e-06,0.0,0 STARLINK-3447,1 51736U 22016Y   23161.37264084 -.00000280  00000-0  47584-6 0  9995,2 51736  53.2154 143.1835 0001056  89.6897 270.4216 15.08836267 73220,6917.892,95.438,540.487,539.026,0.0
51736.0,STARLINK-3447,PAYLOAD,2023-06-11 05:36:36,15.08841184,0.0001028,53.2155,139.3178,88.7666,271.3444,5.2162e-05,5.43e-06,0.0,0 STARLINK-3447,1 51736U 22016Y   23162.23375767  .00000543  00000-0  52162-4 0  9999,2 51736  53.2155 139.3178 0001028  88.7666 271.3444 15.08841184 72227,6917.877,95.437,540.453,539.031,0.0
51736.0,STARLINK-3447,PAYLOAD,2023-06-11 15:08:55,15.08838013,9.96e-05,53.2155,137.5335,85.6211,274.4895,3.8581e-05,3.26e-06,0.0,0 STARLINK-3447,1 51736U 22016Y   23162.63120042  .00000326  00000-0  38581-4 0  9995,2 51736  53.2155 137.5335 0000996  85.6211 274.4895 15.08838013 73410,6917.886,95.438,540.44,539.062,0.0
51736.0,STARLINK-3447,PAYLOAD,2023-06-11 23:05:51,15.08833384,0.0001092,53.2162,136.0486,96.4667,263.645,1.3289e-05,-7.6e-07,0.0,0 STARLINK-3447,1 51736U 22016Y   23162.96240567 -.00000076  00000-0  13289-4 0  9997,2 51736  53.2162 136.0486 0001092  96.4667 263.6450 15.08833384 73460,6917.901,95.438,540.521,539.01,0.0
51736.0,STARLINK-3447,PAYLOAD,2023-06-12 02:16:38,15.08834185,0.0001096,53.2163,135.454,96.9714,263.1403,1.7945e-05,-2e-08,0.0,0 STARLINK-3447,1 51736U 22016Y   23163.09488545 -.00000002  00000-0  17945-4 0  9994,2 51736  53.2163 135.4540 0001096  96.9714 263.1403 15.08834185 72357,6917.898,95.438,540.521,539.005,0.0
51736.0,STARLINK-3447,PAYLOAD,2023-06-12 21:21:15,15.08834049,0.0001119,53.2167,131.8862,96.554,263.5579,3.5655e-05,2.8e-06,0.0,0 STARLINK-3447,1 51736U 22016Y   23163.88976763  .00000280  00000-0  35655-4 0  9990,2 51736  53.2167 131.8862 0001119  96.5540 263.5579 15.08834049 72477,6917.899,95.438,540.538,538.989,0.0
51736.0,STARLINK-3447,PAYLOAD,2023-06-13 06:53:34,15.08837537,0.0001124,53.2169,130.1024,97.0635,263.0485,2.2357e-05,6.8e-07,0.0,0 STARLINK-3447,1 51736U 22016Y   23164.28720656  .00000068  00000-0  22357-4 0  9992,2 51736  53.2169 130.1024 0001124  97.0635 263.0485 15.08837537 73666,6917.888,95.438,540.53,538.975,0.0
51736.0,STARLINK-3447,PAYLOAD,2023-06-14 06:44:21,15.0883837,0.000125,53.2169,125.6398,84.638,275.4755,5.1066e-05,5.25e-06,0.0,0 STARLINK-3447,1 51736U 22016Y   23165.28080786  .00000525  00000-0  51066-4 0  9993,2 51736  53.2169 125.6398 0001250  84.6380 275.4755 15.08838370 72682,6917.885,95.438,540.615,538.886,0.0
51736.0,STARLINK-3447,PAYLOAD,2023-06-14 21:02:49,15.08838478,0.0001228,53.216,122.9635,87.6618,272.4515,7.1042e-05,8.43e-06,0.0,0 STARLINK-3447,1 51736U 22016Y   23165.87696746  .00000843  00000-0  71042-4 0  9996,2 51736  53.2160 122.9635 0001228  87.6618 272.4515 15.08838478 72779,6917.885,95.438,540.6,538.901,0.0
51736.0,STARLINK-3447,PAYLOAD,2023-06-15 03:24:22,15.08842103,0.0001199,53.2161,121.7741,89.7246,270.3883,9.838e-05,1.278e-05,0.0,0 STARLINK-3447,1 51736U 22016Y   23166.14192425  .00001278  00000-0  98380-4 0  9999,2 51736  53.2161 121.7741 0001199  89.7246 270.3883 15.08842103 73947,6917.874,95.437,540.568,538.91,0.0
51736.0,STARLINK-3447,PAYLOAD,2023-06-15 06:35:08,15.08844296,0.0001196,53.2165,121.179,91.7767,268.3363,7.3426e-05,8.81e-06,0.0,0 STARLINK-3447,1 51736U 22016Y   23166.27440336  .00000881  00000-0  73426-4 0  9993,2 51736  53.2165 121.1790 0001196  91.7767 268.3363 15.08844296 72839,6917.867,95.437,540.56,538.905,0.0
51736.0,STARLINK-3447,PAYLOAD,2023-06-16 06:25:55,15.08843855,0.0001168,53.2158,116.719,92.1546,267.958,0.00013177,1.81e-05,0.0,0 STARLINK-3447,1 51736U 22016Y   23167.26800087  .00001810  00000-0  13177-3 0  9995,2 51736  53.2158 116.7190 0001168  92.1546 267.9580 15.08843855 74113,6917.869,95.437,540.542,538.926,0.0
51736.0,STARLINK-3447,PAYLOAD,2023-06-17 06:16:42,15.08846679,0.0001271,53.2159,112.2583,89.2506,270.8632,5.5187e-05,5.91e-06,0.0,0 STARLINK-3447,1 51736U 22016Y   23168.26159914  .00000591  00000-0  55187-4 0  9995,2 51736  53.2159 112.2583 0001271  89.2506 270.8632 15.08846679 73138,6917.86,95.437,540.604,538.846,0.0
51736.0,STARLINK-3447,PAYLOAD,2023-06-18 02:56:44,15.08832586,0.0001597,53.2165,108.3901,92.0546,268.0629,-7.7916e-05,-1.528e-05,0.0,0 STARLINK-3447,1 51736U 22016Y   23169.12273605 -.00001528  00000-0 -77916-4 0  9992,2 51736  53.2165 108.3901 0001597  92.0546 268.0629 15.08832586 74398,6917.903,95.438,540.873,538.663,0.0
51736.0,STARLINK-3447,PAYLOAD,2023-06-18 12:29:02,15.0883708,0.0001354,53.2163,106.6078,96.6273,263.4874,-1.6691e-05,-5.54e-06,0.0,0 STARLINK-3447,1 51736U 22016Y   23169.52017258 -.00000554  00000-0 -16691-4 0  9997,2 51736  53.2163 106.6078 0001354  96.6273 263.4874 15.08837080 73327,6917.889,95.438,540.691,538.818,0.0
51736.0,STARLINK-3447,PAYLOAD,2023-06-18 20:25:58,15.08840963,0.0001177,53.2161,105.121,89.1529,270.9598,-9.9441e-06,-4.46e-06,0.0,0 STARLINK-3447,1 51736U 22016Y   23169.85137162 -.00000446  00000-0 -99441-5 0  9995,2 51736  53.2161 105.1210 0001177  89.1529 270.9598 15.08840963 73376,6917.877,95.437,540.557,538.928,0.0
51736.0,STARLINK-3447,PAYLOAD,2023-06-19 02:47:30,15.08847682,0.0001226,53.2162,103.9336,95.7512,264.362,6.6172e-05,7.66e-06,0.0,0 STARLINK-3447,1 51736U 22016Y   23170.11632522  .00000766  00000-0  66172-4 0  9993,2 51736  53.2162 103.9336 0001226  95.7512 264.3620 15.08847682 74540,6917.857,95.437,540.57,538.874,0.0
51736.0,STARLINK-3447,PAYLOAD,2023-06-19 12:19:49,15.08842765,0.000136,53.2162,102.1476,89.9636,270.1512,6.2582e-05,7.08e-06,0.0,0 STARLINK-3447,1 51736U 22016Y   23170.51376822  .00000708  00000-0  62582-4 0  9992,2 51736  53.2162 102.1476 0001360  89.9636 270.1512 15.08842765 73470,6917.872,95.437,540.678,538.796,0.0
51736.0,STARLINK-3447,PAYLOAD,2023-06-20 04:13:40,15.08853539,0.0001248,53.2168,99.1749,96.5344,263.579,0.0002534,3.749e-05,0.0,0 STARLINK-3447,1 51736U 22016Y   23171.17615935  .00003749  00000-0  25340-3 0  9994,2 51736  53.2168  99.1749 0001248  96.5344 263.5790 15.08853539 74701,6917.839,95.437,540.567,538.841,0.0
51736.0,STARLINK-3447,PAYLOAD,2023-06-20 12:10:36,15.0884813,0.000166,53.2164,97.6846,76.0841,284.0336,0.00015957,2.253e-05,0.0,0 STARLINK-3447,1 51736U 22016Y   23171.50736622  .00002253  00000-0  15957-3 0  9990,2 51736  53.2164  97.6846 0001660  76.0841 284.0336 15.08848130 73626,6917.856,95.437,540.869,538.572,0.0
51736.0,STARLINK-3447,PAYLOAD,2023-06-20 18:32:09,15.08842914,0.0001976,53.2167,96.4987,83.7629,276.3588,9.45e-05,1.216e-05,0.0,0 STARLINK-3447,1 51736U 22016Y   23171.77233208  .00001216  00000-0  94500-4 0  9991,2 51736  53.2167  96.4987 0001976  83.7629 276.3588 15.08842914 74797,6917.871,95.437,541.103,538.37,0.0
51736.0,STARLINK-3447,PAYLOAD,2023-06-21 02:29:05,15.08837068,0.000145,53.217,95.0134,81.5628,278.5528,-3.1416e-05,-7.88e-06,0.0,0 STARLINK-3447,1 51736U 22016Y   23172.10353818 -.00000788  00000-0 -31416-4 0  9991,2 51736  53.2170  95.0134 0001450  81.5628 278.5528 15.08837068 74840,6917.889,95.438,540.757,538.751,0.0
51736.0,STARLINK-3447,PAYLOAD,2023-06-21 12:01:24,15.08843145,0.0001421,53.2175,93.2286,86.7326,273.3828,-3.5277e-05,-8.49e-06,0.0,0 STARLINK-3447,1 51736U 22016Y   23172.50097403 -.00000849  00000-0 -35277-4 0  9997,2 51736  53.2175  93.2286 0001421  86.7326 273.3828 15.08843145 73773,6917.871,95.437,540.719,538.753,0.0
51736.0,STARLINK-3447,PAYLOAD,2023-06-22 03:55:14,15.08851793,0.0001311,53.217,90.2528,90.5285,269.5858,-6.295e-06,-3.88e-06,0.0,0 STARLINK-3447,1 51736U 22016Y   23173.16336789 -.00000388  00000-0 -62950-5 0  9990,2 51736  53.2170  90.2528 0001311  90.5285 269.5858 15.08851793 75005,6917.844,95.437,540.616,538.802,0.0
51736.0,STARLINK-3447,PAYLOAD,2023-06-22 11:52:11,15.08837896,0.0001639,53.2168,88.7654,87.791,272.3269,1.5711e-05,-3.8e-07,0.0,0 STARLINK-3447,1 51736U 22016Y   23173.49457693 -.00000038  00000-0  15711-4 0  9997,2 51736  53.2168  88.7654 0001639  87.7910 272.3269 15.08837896 75051,6917.887,95.438,540.886,538.618,0.0
51736.0,STARLINK-3447,PAYLOAD,2023-06-24 03:36:49,15.08850643,0.0001315,53.2175,81.3319,95.5312,264.5831,0.00010855,1.441e-05,0.0,0 STARLINK-3447,1 51736U 22016Y   23175.15056811  .00001441  00000-0  10855-3 0  9990,2 51736  53.2175  81.3319 0001315  95.5312 264.5831 15.08850643 75301,6917.848,95.437,540.623,538.803,0.0
51736.0,STARLINK-3447,PAYLOAD,2023-06-25 01:52:13,15.08848488,9.95e-05,53.2158,77.1707,90.9414,269.1692,0.00013472,1.857e-05,0.0,0 STARLINK-3447,1 51736U 22016Y   23176.07793352  .00001857  00000-0  13472-3 0  9999,2 51736  53.2158  77.1707 0000995  90.9414 269.1692 15.08848488 75446,6917.854,95.437,540.408,539.031,0.0
51736.0,STARLINK-3447,PAYLOAD,2023-06-25 16:10:41,15.08843107,0.0001654,53.2156,74.4937,83.8924,276.2257,0.00013294,1.829e-05,0.0,0 STARLINK-3447,1 51736U 22016Y   23176.67409698  .00001829  00000-0  13294-3 0  9993,2 51736  53.2156  74.4937 0001654  83.8924 276.2257 15.08843107 75538,6917.871,95.437,540.88,538.592,0.0
